<?xml version="1.0" encoding="UTF-8"?>
<kml xmlns="http://www.opengis.net/kml/2.2" xmlns:gx="http://www.google.com/kml/ext/2.2" xmlns:kml="http://www.opengis.net/kml/2.2" xmlns:atom="http://www.w3.org/2005/Atom">
<Document>
	<name>Stardust Marzec 2022</name>
	<gx:CascadingStyle kml:id="__managed_style_1D9AF48B3F32D04B9070">
		<Style>
			<IconStyle>
				<scale>0.75</scale>
				<Icon>
					<href>https://earth.google.com/earth/document/icon?color=1976d2&amp;id=2006&amp;scale=4</href>
				</Icon>
				<hotSpot x="64" y="128" xunits="pixels" yunits="insetPixels"/>
			</IconStyle>
			<LabelStyle>
			</LabelStyle>
			<LineStyle>
			</LineStyle>
			<PolyStyle>
			</PolyStyle>
			<BalloonStyle>
			</BalloonStyle>
		</Style>
	</gx:CascadingStyle>
	<StyleMap id="__managed_style_0CB5DD02EE32D04B9070">
		<Pair>
			<key>normal</key>
			<styleUrl>#__managed_style_1D9AF48B3F32D04B9070</styleUrl>
		</Pair>
		<Pair>
			<key>highlight</key>
			<styleUrl>#__managed_style_25659EFAC832D04B9070</styleUrl>
		</Pair>
	</StyleMap>
	<gx:CascadingStyle kml:id="__managed_style_25659EFAC832D04B9070">
		<Style>
			<IconStyle>
				<scale>0.9</scale>
				<Icon>
					<href>https://earth.google.com/earth/document/icon?color=1976d2&amp;id=2006&amp;scale=4</href>
				</Icon>
				<hotSpot x="64" y="128" xunits="pixels" yunits="insetPixels"/>
			</IconStyle>
			<LabelStyle>
			</LabelStyle>
			<LineStyle>
				<width>1.5</width>
			</LineStyle>
			<PolyStyle>
			</PolyStyle>
			<BalloonStyle>
			</BalloonStyle>
		</Style>
	</gx:CascadingStyle>
	<Style id="balloon6">
		<IconStyle>
			<scale>2</scale>
			<Icon>
				<href>https://amateur.sondehub.org/img/markers/balloon-cyan.png</href>
			</Icon>
			<hotSpot x="0.5" y="0" xunits="fraction" yunits="fraction"/>
		</IconStyle>
	</Style>
	<Style id="balloon5">
		<IconStyle>
			<scale>2</scale>
			<Icon>
				<href>https://amateur.sondehub.org/img/markers/balloon-orange.png</href>
			</Icon>
			<hotSpot x="0.5" y="0" xunits="fraction" yunits="fraction"/>
		</IconStyle>
	</Style>
	<Style id="balloon4">
		<IconStyle>
			<scale>2</scale>
			<Icon>
				<href>https://amateur.sondehub.org/img/markers/balloon-purple.png</href>
			</Icon>
			<hotSpot x="0.5" y="0" xunits="fraction" yunits="fraction"/>
		</IconStyle>
	</Style>
	<Style id="balloon3">
		<IconStyle>
			<scale>2</scale>
			<Icon>
				<href>https://amateur.sondehub.org/img/markers/balloon-yellow.png</href>
			</Icon>
			<hotSpot x="0.5" y="0" xunits="fraction" yunits="fraction"/>
		</IconStyle>
	</Style>
	<Style id="balloon2">
		<IconStyle>
			<scale>2</scale>
			<Icon>
				<href>https://amateur.sondehub.org/img/markers/balloon-green.png</href>
			</Icon>
			<hotSpot x="0.5" y="0" xunits="fraction" yunits="fraction"/>
		</IconStyle>
	</Style>
	<Style id="balloon1">
		<IconStyle>
			<scale>2</scale>
			<Icon>
				<href>https://amateur.sondehub.org/img/markers/balloon-blue.png</href>
			</Icon>
			<hotSpot x="0.5" y="0" xunits="fraction" yunits="fraction"/>
		</IconStyle>
	</Style>
	<Style id="balloon0">
		<IconStyle>
			<scale>2</scale>
			<Icon>
				<href>https://amateur.sondehub.org/img/markers/balloon-red.png</href>
			</Icon>
			<hotSpot x="0.5" y="0" xunits="fraction" yunits="fraction"/>
		</IconStyle>
	</Style>
	<Folder id="05184F924C32D0460A78">
		<name>SR0FLY RTTY</name>
		<Placemark id="0536B5B0E232D047BB3A">
			<name>SR0FLY</name>
			<description><![CDATA[<b>Vehicle:</b> SR0FLY<br /><b>Time:</b> 2022-02-27 14:13:48<br /><b>Position:</b> 53.15614,19.31709<br /><b>Altitude:</b> 91 m<br /></br><b>Data</b></br><hr/><b>goodsatframes: </b>4935<br/><b>temperature: </b>15<br/><b>battery: </b>2.85<br/><b>badsatframes: </b>3<br/><b>controlsum: </b>80<br/><b>satellites: </b>11<br/>]]></description>
			<LookAt>
				<longitude>19.31709</longitude>
				<latitude>53.15614</latitude>
				<altitude>91</altitude>
				<heading>0</heading>
				<tilt>25</tilt>
				<range>20000</range>
				<altitudeMode>absolute</altitudeMode>
			</LookAt>
			<styleUrl>#__managed_style_0CB5DD02EE32D04B9070</styleUrl>
			<Point>
				<altitudeMode>absolute</altitudeMode>
				<coordinates>19.31709,53.15614,91</coordinates>
			</Point>
		</Placemark>
		<Placemark id="0B2955885B32D047BBA9">
			<name>Track Segment #1</name>
			<Style>
				<LineStyle>
					<color>ff0f8aff</color>
					<width>4</width>
				</LineStyle>
				<PolyStyle>
					<color>7fffffff</color>
				</PolyStyle>
			</Style>
			<LineString>
				<extrude>1</extrude>
				<tessellate>1</tessellate>
				<altitudeMode>absolute</altitudeMode>
				<coordinates>
					19.53982,53.59297000000001,916 19.5367,53.5928,1048 19.53501,53.59273,1116 19.53345,53.59275,1195 19.53185,53.59263,1277 19.53017,53.59222,1369 19.52887,53.59157,1448 19.52725,53.59094000000001,1522 19.526,53.59027999999999,1601 19.52465,53.58961000000001,1677 19.52331,53.58891,1749 19.52157,53.58821,1829 19.52,53.58751,1901 19.51836,53.5867,1975 19.51668,53.58613,2044 19.51476,53.58535,2111 19.51302,53.58472,2184 19.51114,53.58388999999999,2252 19.5093,53.58327,2323 19.50746,53.58252999999999,2397 19.50504,53.58149000000001,2485 19.50253,53.58041000000001,2569 19.50002,53.57918,2646 19.49715,53.57803,2723 19.49439,53.57692,2798 19.49128,53.57553,2888 19.48843,53.57446999999999,2961 19.48575,53.57329,3034 19.48306,53.57201,3110 19.48004,53.57083,3184 19.47684,53.56937,3270 19.47362,53.56798999999999,3339 19.47093,53.56658,3408 19.46773,53.56526000000001,3477 19.46393,53.56351,3557 19.46107,53.56228,3623 19.45758,53.56097,3714 19.45405,53.55965,3792 19.45133,53.55826,3865 19.44831,53.55667999999999,3944 19.44494,53.55477,4030 19.44212,53.55324,4109 19.4392,53.55174,4182 19.43604,53.55006999999999,4272 19.43352,53.54865,4349 19.43052,53.54711,4434 19.42764,53.54563,4510 19.42421,53.54386,4597 19.42097,53.5423,4678 19.41769,53.54097,4757 19.41402,53.53918,4845 19.41097,53.53777,4920 19.4074,53.5361,5010 19.40387,53.53458,5095 19.40082,53.53305999999999,5173 19.39801,53.53174,5257 19.39489,53.52975000000001,5344 19.39221,53.52801,5423 19.38968,53.52622,5495 19.38618,53.52412,5581 19.3829,53.52222,5659 19.37945,53.52023,5738 19.37608,53.51857999999999,5809 19.37233,53.51639,5903 19.36878,53.51429,5980 19.36512,53.51232000000001,6063 19.36082,53.50972,6151 19.35713,53.50704999999999,6223.000000000001 19.35365,53.50447,6294 19.34931,53.50169,6374 19.34507,53.49881,6449 19.34148,53.49595,6511.999999999999 19.33735,53.49282,6579.999999999999 19.33307,53.48969,6664 19.32945,53.48678000000001,6729 19.32553,53.48397,6789 19.32155,53.48086,6858 19.31757,53.47767,6946 19.31375,53.47483,7008.999999999999 19.31009,53.47108,7082.999999999999 19.30632,53.46795,7149 19.3025,53.46522,7215 19.29872,53.46188999999999,7275.999999999999 19.29473,53.45860999999999,7357 19.29071,53.45551,7428.999999999999 19.2869,53.45207,7495.000000000001 19.28247,53.44877,7579.999999999999 19.27864,53.44566,7644.999999999999 19.27502,53.44282,7709 19.2704,53.43987,7783 19.26625,53.4371,7863 19.26204,53.43406,7931 19.25717,53.43074,8008 19.25296,53.42767,8081.999999999999 19.24878,53.42506999999999,8149 19.24503,53.42246,8224 19.24009,53.41947,8305 19.23556,53.41722,8382 19.23099,53.41489000000001,8456 19.22643,53.41251,8526 19.22151,53.40996,8590 19.21608,53.40732,8663 19.21105,53.40478,8725 19.2054,53.40182,8800 19.20046,53.39934,8861 19.19545,53.39661,8923 19.19029,53.39399000000001,8982 19.18447,53.39088,9053 19.17937,53.38827000000001,9114 19.17394,53.38551999999999,9180 19.16887,53.38301,9239 19.1637,53.38051999999999,9300 19.15762,53.37764,9370 19.15222,53.3751,9431 19.14698,53.37259000000001,9495 19.14159,53.37016,9551 19.13623,53.36787,9609 19.12998,53.3651,9681 19.12423,53.36265,9754 19.11885,53.36020000000001,9819 19.11276,53.35744,9895 19.10736,53.355,9955 19.10192,53.35255,10014 19.0956,53.3498,10084 19.0902,53.34752,10142 19.0841,53.34493,10205 19.0774,53.34226,10276 19.07155,53.33996,10337 19.06548,53.33768,10393 19.05874,53.33496999999999,10461 19.05282,53.33274999999999,10520 19.0467,53.33048,10583 19.03989,53.32791,10657 19.03353,53.32565000000001,10745 19.0279,53.32402,10821 19.02269,53.32186,10897 19.01775,53.31998,10961 19.01251,53.318,11035 19.00824,53.31595,11099 19.00408,53.31394,11166 18.99968,53.31144,11243 18.9957,53.30885,11312 18.992,53.30632,11368 18.98794,53.30321,11438 18.98415,53.30011999999999,11501 18.98098,53.29693,11563 18.97772,53.29361999999999,11626 18.97411,53.29026,11685 18.96997,53.28676,11760 18.96479,53.28322000000001,11841 18.96078,53.28097,11922 18.95703,53.279,12009 18.95394,53.27735,12070 18.95156,53.27591,12138 18.94935,53.27413,12212 18.94766,53.27254,12273 18.94626,53.27059,12335 18.94413,53.26802000000001,12411 18.94184,53.26595,12475 18.93929,53.26404999999999,12540 18.93632,53.2623,12612 18.93383,53.26103,12675 18.93147,53.26001,12746 18.92901,53.25929000000001,12818 18.92732,53.25862,12884 18.92528,53.25823999999999,12960 18.9241,53.25786,13023 18.92285,53.25735,13091 18.92173,53.25648000000001,13167 18.92041,53.25568000000001,13228 18.91966,53.25507,13291 18.91923,53.25416,13368 18.91933,53.25342999999999,13420 18.91957,53.25202,13503 18.91986,53.25077,13575 18.91998,53.24899,13646 18.92024,53.24715,13719 18.92011,53.2451,13785 18.91946,53.24298,13860 18.91851,53.24109000000001,13926 18.91759,53.23953000000001,13998 18.91586,53.23811,14074 18.91434,53.23703,14137 18.913,53.23617000000001,14202 18.91153,53.23555,14278 18.91033,53.23533999999999,14346 18.90928,53.23505,14408 18.9081,53.23483,14499 18.90769,53.23492,14569 18.90702,53.23497999999999,14665 18.90665,53.23525,14733 18.90673,53.2354,14817 18.90718,53.23565,14884 18.90767,53.23567000000001,14949 18.90875,53.23556000000001,15022 18.90979,53.23537,15084 18.91159,53.23494,15160 18.91299,53.23439,15227 18.91471,53.2334,15300 18.91665,53.23232,15379 18.91865,53.23114,15439 18.9211,53.22965,15530 18.92267,53.2285,15595 18.92442,53.22744,15671 18.92553,53.22678000000001,15738 18.92649,53.22648,15812 18.92782,53.22625000000001,15897 18.92904,53.22617,15958 18.93054,53.22599,16018 18.93208,53.22563,16090 18.93341,53.22523,16155 18.93487,53.22455999999999,16224 18.93671,53.2237,16301 18.9385,53.2229,16372 18.94054,53.22241999999999,16437 18.94274,53.22195,16511 18.94522,53.22194,16574 18.94775,53.22183,16640 18.95048,53.22138000000001,16714 18.95268,53.22108999999999,16796 18.95505,53.22066999999999,16875 18.95699,53.22021,16945 18.95858,53.2199,17013 18.96027,53.21935999999999,17091 18.96181,53.21889,17161 18.96345,53.21834,17230 18.96591,53.21751,17307 18.96828,53.21678,17374 18.97062,53.21616000000001,17450 18.97328,53.21532999999999,17529 18.97534,53.21467,17611 18.97664,53.2139,17675 18.97816,53.21328,17755 18.97927,53.21241000000001,17826 18.98014,53.21156,17907 18.98117,53.21104,17980 18.98254,53.21084,18070 18.98431,53.21065,18146 18.98602,53.21053,18218 18.98855,53.21031,18298 18.99062,53.21002000000001,18372 18.99264,53.20957,18450 18.99494,53.20889,18548 18.99655,53.20828,18635 18.99878,53.2077,18714 19.00081,53.20735,18792 19.00339,53.20686,18872 19.00583,53.20603,18942 19.00814,53.20512,19012 19.01062,53.20426999999999,19093 19.01281,53.20356,19170 19.01528,53.20295,19246 19.01761,53.20239,19316 19.02048,53.20187,19392 19.02367,53.20145,19483 19.02563,53.20101,19570 19.02811,53.20112,19645 19.0305,53.20114,19719 19.03309,53.20133,19795 19.03579,53.20172,19881 19.03793,53.20188,19955 19.0407,53.2022,20050 19.04274,53.20242,20133 19.04498,53.20235,20225 19.04751,53.20193,20316 19.04991,53.20142,20390 19.05255,53.20106,20458 19.0554,53.20059999999999,20539 19.05774,53.20040999999999,20612 19.06054,53.20052,20701 19.06307,53.20081,20776 19.06663,53.2011,20861 19.06981,53.2011,20931 19.07341,53.20107999999999,21002 19.07707,53.20107999999999,21075 19.08108,53.20088000000001,21158 19.08438,53.20072,21233 19.08769,53.20039,21315 19.09035,53.20019,21400 19.0927,53.20006,21478 19.09535,53.20010000000001,21565 19.09776,53.20054,21642 19.1009,53.20103,21723 19.10466,53.20159,21807 19.10842,53.20188,21883 19.11261,53.20219,21966 19.11642,53.20237,22038 19.12101,53.20209,22127 19.12554,53.20183,22200 19.12934,53.20182,22274 19.13337,53.20173,22355 19.13653,53.20167,22430 19.13925,53.20141,22506 19.14208,53.20128,22585 19.14538,53.20137999999999,22678 19.14848,53.2014,22748 19.15245,53.20164,22841 19.15624,53.20164,22914 19.16007,53.20166,22989 19.16426,53.20165,23081 19.16808,53.2013,23168 19.17199,53.20086,23255 19.17519,53.20112999999999,23337 19.17878,53.20137,23435 19.18235,53.20154000000001,23519 19.18584,53.20142,23610 19.18946,53.20177,23708 19.19242,53.20251,23796 19.19512,53.20356,23883 19.19799,53.20487,23978 19.20118,53.20616,24074 19.20436,53.20725,24161 19.2078,53.20803,24249 19.21209,53.20862,24351 19.21603,53.20911,24434 19.21955,53.20938,24523 19.22338,53.20968999999999,24617 19.22622,53.20990999999999,24704 19.22901,53.21035,24802 19.23119,53.21088,24884 19.23334,53.21179,24966 19.23587,53.21256,25051 19.23907,53.21313,25147 19.24176,53.21371,25240 19.24437,53.21448,25327 19.24738,53.2156,25432 19.25042,53.21673,25515 19.2534,53.21796999999999,25604 19.25604,53.21862,25684 19.25871,53.21927000000001,25768 19.26148,53.22013,25862 19.26451,53.22127999999999,25940 19.26786,53.2224,26029 19.27166,53.22358,26115 19.27576,53.22529,26205 19.27914,53.22696,26292 19.28298,53.22822000000001,26374 19.28736,53.22955999999999,26478 19.29092,53.23073,26560 19.29448,53.23159,26647 19.29828,53.23243,26732 19.302,53.23338,26835 19.30472,53.2343,26919 19.30816,53.23508999999999,27001 19.31157,53.2362,27101 19.31438,53.23729,27192 19.31686,53.23846,27278 19.31991,53.2398,27371 19.32315,53.24071,27457 19.32743,53.24163,27564 19.33126,53.24224,27640 19.33483,53.24293,27721 19.33809,53.24347,27809 19.342,53.24391,27899 19.34548,53.24466,27984 19.34928,53.24551,28057 19.35297,53.24678,28149 19.35622,53.24797,28241 19.35972,53.2493,28328 19.36306,53.25059000000001,28413 19.36653,53.25195,28517 19.36947,53.25287000000001,28608 19.37272,53.25374,28697 19.37645,53.25431,28800 19.37907,53.25515000000001,28891 19.3815,53.25574,28987 19.38437,53.25705,29077 19.38788,53.25832,29183 19.39167,53.25987,29274 19.39556,53.26123,29363 19.40004,53.26262,29461 19.40364,53.26340999999999,29546 19.40796,53.26486,29641 19.41186,53.26648,29735 19.4154,53.26782,29825 19.41986,53.26967,29920 19.42368,53.27147,29998 19.42787,53.27287,30082 19.4319,53.27457,30169 19.43674,53.27694,30271 19.4411,53.27884,30359 19.44588,53.28091,30463 19.45141,53.28358999999999,30561 19.45657,53.28604,30648 19.46081,53.28838,30737 19.46468,53.29097999999999,30820 19.46881,53.29333,30920 19.47213,53.29533,31011 19.47459,53.29707,31099 19.47804,53.29871,31207 19.48058,53.29958,31295 19.48384,53.30024,31384 19.48745,53.30106000000001,31472 19.49238,53.30228999999999,31575 19.49581,53.30381,31655 19.50027,53.30569,31759 19.50371,53.30741,31849 19.50767,53.30929,31946 19.51119,53.31145,32048 19.51372,53.31363,32138 19.51661,53.31611,32232 19.51911,53.31855,32324 19.52167,53.32093,32413 19.52431,53.32387,32515 19.52647,53.3262,32604 19.52852,53.32863,32700 19.53065,53.33061,32790 19.53236,53.33266,32878 19.5347,53.33526,32980 19.53748,53.33738000000001,33073 19.54002,53.33923,33165 19.54215,53.34096,33253 19.54392,53.34279,33341 19.54579,53.34497,33381 19.54812,53.34752999999999,32466 19.55102,53.34967,31578 19.55438,53.35117,30788 19.55946,53.35366,30006 19.56382,53.35549,29312 19.56628,53.35653000000001,28653 19.56935,53.35755,28018 19.57328,53.35927,27306 19.57689,53.36046,26637 19.58042,53.36141,26066 19.58375,53.36234,25526 19.5867,53.36344,25007 19.5899,53.36419,24472 19.59432,53.36495000000001,23926 19.59771,53.36572,23469 19.60165,53.36571,22994 19.60592,53.36589,22502 19.60936,53.36563,22086 19.61358,53.36536,21686 19.61685,53.3651,21242 19.62081,53.36517,20885 19.62391,53.36542,20470 19.626,53.3653,20139 19.62936,53.36574,19726 19.63177,53.3656,19361 19.63398,53.36527,19027 19.63603,53.36458,18687 19.63783,53.36415,18373 19.63992,53.36374,18028 19.64097,53.36314999999999,17730 19.64253,53.36224,17422 19.64467,53.3615,17116 19.64634,53.36089,16834 19.64898,53.3601,16522 19.65157,53.35952,16256 19.65327,53.35887,15960 19.65505,53.35803,15733 19.65632,53.3574,15484 19.65869,53.3561,15199 19.66075,53.35556,14939 19.66147,53.35543,14699 19.66137,53.35545,14428 19.66042,53.35522000000001,14200 19.65914,53.35448,13983 19.65819,53.35302,13739 19.65817,53.35165,13536 19.65864,53.35005999999999,13331 19.65795,53.34855999999999,13076 19.65691,53.34735999999999,12873 19.65466,53.34627,12690 19.65117,53.34465,12480 19.64896,53.34274,12303 19.64628,53.34103,12094 19.64245,53.33945,11904 19.63823,53.33660999999999,11716 19.6341,53.33255,11493 19.63072,53.32954,11324 19.62604,53.32713,11169 19.6202,53.32443,10976 19.61429,53.32225,10804 19.60709,53.31957000000001,10653 19.60047,53.31702,10483 19.59396,53.31409,10311 19.5866,53.3109,10122 19.58097,53.30824,9960 19.5756,53.30545999999999,9805 19.5705,53.30259,9651 19.56439,53.29929,9489 19.55929,53.29644,9348 19.55433,53.29315,9205 19.54986,53.29011,9061 19.54436,53.28694999999999,8908 19.53932,53.28365,8754 19.5345,53.28082,8627 19.53039,53.27786,8488 19.52533,53.27498,8354 19.52098,53.27212,8233 19.51653,53.26949,8109 19.51147,53.26615,7968.999999999999 19.50698,53.26294,7839 19.50282,53.26014,7712 19.49822,53.25722,7584.999999999999 19.49407,53.25436,7451.999999999999 19.48995,53.25086,7323 19.48629,53.24795000000001,7200 19.48275,53.24536,7082.999999999999 19.47896,53.24291,6976 19.47473,53.24,6846.999999999999 19.47089,53.23712,6720 19.46724,53.23475,6611 19.46329,53.23163,6490 19.45932,53.22918,6383.999999999999 19.4555,53.22713,6277 19.45204,53.22499,6150 19.44782,53.2227,6007 19.44415,53.22076,5889 19.44062,53.21853,5774 19.43726,53.21627000000001,5670 19.43411,53.21398,5569 19.43047,53.21204,5453 19.42762,53.20993,5342 19.42432,53.20810999999999,5243 19.42118,53.20649,5135 19.41732,53.20448,5012 19.41403,53.20284,4908 19.41086,53.20126,4801 19.40722,53.19957000000001,4686 19.40444,53.19812,4579 19.40138,53.1967,4464 19.39829,53.19532,4366 19.39496,53.19343000000001,4247 19.39162,53.19158,4135 19.38856,53.18987,4028 19.38504,53.18805,3914 19.38206,53.18639,3819 19.37901,53.18531999999999,3719 19.37605,53.1841,3612 19.37262,53.18266,3495 19.36954,53.18122,3395 19.36669,53.17967000000001,3279 19.3638,53.17799,3163 19.36126,53.17667999999999,3065 19.35821,53.17533,2967 19.35537,53.17411,2870 19.35249,53.17299,2774 19.34952,53.17199,2667 19.34674,53.17118,2568 19.34383,53.17026,2444 19.34191,53.16939000000001,2343 19.34006,53.16858,2235 19.3382,53.16769,2109 19.33677,53.16693,1999 19.33534,53.16605,1889 19.33399,53.16519000000001,1779 19.33239,53.16429,1657 19.33073,53.16352999999999,1543 19.32906,53.16295,1434 19.32761,53.16255000000001,1314 19.32647,53.16217,1212 19.32533,53.1617,1107 19.32419,53.16113,1001 19.32312,53.16038,881 19.32217,53.15989,779 19.32123,53.15946,676 19.32041,53.15901,588 19.31953,53.15844,491 19.31882,53.1579,397 19.31814,53.15738000000001,295 19.3171,53.15615,88 19.31709,53.15615,91 19.31709,53.15615,90 19.31709,53.15615,91 19.31709,53.15615,91 19.31709,53.15614,91 19.31709,53.15614,91 
				</coordinates>
			</LineString>
		</Placemark>
	</Folder>
	<Folder id="10D12C6DD232D0460A78">
		<name>SR0FLY-12 APRS</name>
		<visibility>1</visibility>
		<open>1</open>
		<Placemark id="0D092CE64B32D046D374">
			<name>SR0FLY-12</name>
			<visibility>1</visibility>
			<description><![CDATA[<b>Vehicle:</b> SR0FLY-12<br /><b>Time:</b> 2022-02-27 14:07:36<br /><b>Position:</b> 53.1641666667,19.3323333333<br /><b>Altitude:</b> 1656.2832 m<br /></br><b>Data</b></br><hr/><b>comment: </b>P82S10T13V283Misja stratosferyczna Ilawa 27 02 2022<br/>]]></description>
			<LookAt>
				<longitude>19.3323333333</longitude>
				<latitude>53.1641666667</latitude>
				<altitude>1656.2832</altitude>
				<heading>0</heading>
				<tilt>25</tilt>
				<range>20000</range>
				<altitudeMode>absolute</altitudeMode>
			</LookAt>
			<styleUrl>#balloon6</styleUrl>
			<Point>
				<altitudeMode>absolute</altitudeMode>
				<coordinates>19.3323333333,53.1641666667,1656.2832</coordinates>
			</Point>
		</Placemark>
		<Placemark id="051974730932D046D402">
			<name>Track Segment #1</name>
			<Style>
				<LineStyle>
					<color>ffcaff0f</color>
					<width>4</width>
				</LineStyle>
				<PolyStyle>
					<color>7fffffff</color>
				</PolyStyle>
			</Style>
			<LineString>
				<extrude>1</extrude>
				<tessellate>1</tessellate>
				<altitudeMode>absolute</altitudeMode>
				<coordinates>
					19.483,53.572,3108.96 19.4575,53.5608333333,3712.7688 19.4335,53.5485,4347.6672 19.4073333333,53.53600000000001,5008.4736 19.3828333333,53.5221666667,5657.3928 19.3535,53.50433333330001,6292.291199999999 19.3215,53.48083333329999,6856.1712 19.2906666667,53.4555,7427.061599999999 19.2571666667,53.43066666669999,8005.8768 19.2215,53.4098333333,8587.74 19.1793333333,53.38816666670001,9111.386399999999 19.1361666667,53.36783333330001,9606.381600000001 19.0901666667,53.3475,10139.172 19.0398333333,53.3278333333,10653.9792 18.9996666667,53.31133333330001,11240.1096 18.9698333333,53.2866666667,11756.7456 18.9461666667,53.2705,12331.5984 18.9271666667,53.2585,12880.5432 18.9193333333,53.25333333330001,13416.3816 18.9175,53.2395,13994.2824 18.9076666667,53.2348333333,14565.1728 18.9115,53.2348333333,15155.8752 18.9255,53.2266666667,15733.776 18.9366666667,53.2236666667,16296.7416 18.955,53.2206666667,16870.68 18.9705,53.216,17445.5328 18.9825,53.2108333333,18065.1912 18.9986666667,53.2076666667,18708.9288 19.0175,53.2023333333,19310.9088 19.0378333333,53.2018333333,19949.7696 19.0576666667,53.20033333330001,20606.6136 19.0843333333,53.20066666669999,21227.4912 19.1083333333,53.2018333333,21877.3248 19.1391666667,53.2013333333,22500.0312 19.168,53.2011666667,23162.0568 19.195,53.2035,23876.8128 19.2233333333,53.20966666670001,24610.4664 19.2443333333,53.2143333333,25320.3456 19.2678333333,53.2223333333,26022.3 19.2981666667,53.2323333333,26724.864 19.323,53.2406666667,27449.6784 19.3528333333,53.2466666667,28141.5744 19.379,53.255,28883.45760000001 19.4078333333,53.2648333333,29633.2656 19.441,53.2788333333,30351.0696 19.4745,53.297,31090.8192 19.5036666667,53.30733333329999,31840.6272 19.5263333333,53.3261666667,32595.6168 19.5438333333,53.3426666667,33332.3184 19.5693333333,53.35750000000001,28010.8152 19.5693333333,53.35750000000001,28010.8152 19.5976666667,53.3656666667,23462.8944 19.626,53.3651666667,20133.564 19.6425,53.3621666667,17417.4912 19.6586666667,53.35600000000001,15194.8896 19.6585,53.35000000000001,13327.38 19.6381666667,53.3365,11712.8544 19.5938333333,53.314,10308.336 19.5498333333,53.29000000000001,9058.656000000001 19.4788333333,53.24283333329999,6974.1288 19.4788333333,53.24283333329999,6974.1288 19.4476666667,53.2226666667,6005.1696 19.4211666667,53.2063333333,5133.4416 19.3948333333,53.1933333333,4245.864 19.3695,53.1811666667,3393.948 19.3466666667,53.1711666667,2567.3304 19.3323333333,53.1641666667,1656.2832 
				</coordinates>
			</LineString>
		</Placemark>
	</Folder>
</Document>
</kml>
